[{"OBJECT_NAME":"SCS-01 D","OBJECT_ID":"2025-100D","EPOCH":"2026-03-09T18:08:45.040704","MEAN_MOTION":15.31902149,"ECCENTRICITY":0.00063457,"INCLINATION":97.373,"RA_OF_ASC_NODE":145.4097,"ARG_OF_PERICENTER":266.2302,"MEAN_ANOMALY":93.8214,"EPHEMERIS_TYPE":0,"CLASSIFICATION_TYPE":"U","NORAD_CAT_ID":63985,"ELEMENT_SET_NO":999,"REV_AT_EPOCH":4562,"BSTAR":0.0010528181,"MEAN_MOTION_DOT":0.00032471,"MEAN_MOTION_DDOT":0},{"OBJECT_NAME":"STARLINK-35464","OBJECT_ID":"2025-223AD","EPOCH":"2026-03-09T21:36:44.124480","MEAN_MOTION":15.30201933,"ECCENTRICITY":9.79e-5,"INCLINATION":53.1577,"RA_OF_ASC_NODE":293.4945,"ARG_OF_PERICENTER":86.4578,"MEAN_ANOMALY":273.6535,"EPHEMERIS_TYPE":0,"CLASSIFICATION_TYPE":"U","NORAD_CAT_ID":65881,"ELEMENT_SET_NO":999,"REV_AT_EPOCH":2423,"BSTAR":0.00082406405,"MEAN_MOTION_DOT":0.00024128,"MEAN_MOTION_DDOT":0}]
